{"type": "FeatureCollection", "features": [ {"type": "Feature", "properties": {"norad_id": 38779, "name": "GSAT-10 (GAGAN/PRN 128)", "group": "gnss", "lat": 0.05243962297276325, "lon": 37.257786759178906, "alt_km": 35785.38095936583, "timestamp": "2025-12-24T14:43:29.244597+00:00", "meta": {"OBJECT_NAME": "GSAT-10 (GAGAN/PRN 128)", "OBJECT_ID": "2012-051B", "EPOCH": "2025-12-23T23:47:58.140960", "MEAN_MOTION": 1.00271365, "ECCENTRICITY": 0.00022494, "INCLINATION": 0.065, "RA_OF_ASC_NODE": 262.6687, "ARG_OF_PERICENTER": 219.7195, "MEAN_ANOMALY": 50.4102, "EPHEMERIS_TYPE": 0, "CLASSIFICATION_TYPE": "U", "NORAD_CAT_ID": 38779, "ELEMENT_SET_NO": 999, "REV_AT_EPOCH": 4834, "BSTAR": 0, "MEAN_MOTION_DOT": -1.44e-06, "MEAN_MOTION_DDOT": 0}, "tle": {"line1": "1 38779U 12051B   25357.99164515 -.00000144  00000+0  00000+0 0  9993", "line2": "2 38779   0.0650 262.6687 0002249 219.7195  50.4102  1.00271365 48341"}}, "geometry": {"type": "Point", "coordinates": [37.257786759178906, 0.05243962297276325]}}, {"type": "Feature", "properties": {"norad_id": 38833, "name": "GPS BIIF-3  (PRN 24)", "group": "gnss", "lat": -28.20748732287181, "lon": -5.916175068976802, "alt_km": 20595.481034489174, "timestamp": "2025-12-24T14:43:29.244631+00:00", "meta": {"OBJECT_NAME": "GPS BIIF-3  (PRN 24)", "OBJECT_ID": "2012-053A", "EPOCH": "2025-12-23T07:42:27.651168", "MEAN_MOTION": 2.00565064, "ECCENTRICITY": 0.01760539, "INCLINATION": 53.5596, "RA_OF_ASC_NODE": 150.8054, "ARG_OF_PERICENTER": 64.149, "MEAN_ANOMALY": 297.6308, "EPHEMERIS_TYPE": 0, "CLASSIFICATION_TYPE": "U", "NORAD_CAT_ID": 38833, "ELEMENT_SET_NO": 999, "REV_AT_EPOCH": 9591, "BSTAR": 0, "MEAN_MOTION_DOT": 7.4e-07, "MEAN_MOTION_DDOT": 0}, "tle": {"line1": "1 38833U 12053A   25357.32115337  .00000074  00000+0  00000+0 0  9992", "line2": "2 38833  53.5596 150.8054 0176053  64.1490 297.6308  2.00565064 95916"}}, "geometry": {"type": "Point", "coordinates": [-5.916175068976802, -28.20748732287181]}}, {"type": "Feature", "properties": {"norad_id": 38857, "name": "GSAT0103 (GALILEO-FM3)", "group": "gnss", "lat": -29.333559492767005, "lon": 83.81924847136128, "alt_km": 23220.79331671181, "timestamp": "2025-12-24T14:43:29.244652+00:00", "meta": {"OBJECT_NAME": "GSAT0103 (GALILEO-FM3)", "OBJECT_ID": "2012-055A", "EPOCH": "2025-12-22T21:54:43.252704", "MEAN_MOTION": 1.70473351, "ECCENTRICITY": 0.0002995, "INCLINATION": 55.698, "RA_OF_ASC_NODE": 106.3873, "ARG_OF_PERICENTER": 269.858, "MEAN_ANOMALY": 90.0891, "EPHEMERIS_TYPE": 0, "CLASSIFICATION_TYPE": "U", "NORAD_CAT_ID": 38857, "ELEMENT_SET_NO": 999, "REV_AT_EPOCH": 8200, "BSTAR": 0, "MEAN_MOTION_DOT": 1e-07, "MEAN_MOTION_DDOT": 0}, "tle": {"line1": "1 38857U 12055A   25356.91300061  .00000010  00000+0  00000+0 0  9994", "line2": "2 38857  55.6980 106.3873 0002995 269.8580  90.0891  1.70473351 82005"}}, "geometry": {"type": "Point", "coordinates": [83.81924847136128, -29.333559492767005]}}, {"type": "Feature", "properties": {"norad_id": 38953, "name": "BEIDOU-2 G6 (C02)", "group": "gnss", "lat": -2.3970646178151696, "lon": 38.2625821715332, "alt_km": 35757.500650980415, "timestamp": "2025-12-24T14:43:29.244668+00:00", "meta": {"OBJECT_NAME": "BEIDOU-2 G6 (C02)", "OBJECT_ID": "2012-059A", "EPOCH": "2025-12-23T23:07:51.482784", "MEAN_MOTION": 1.00267756, "ECCENTRICITY": 0.0008393, "INCLINATION": 3.9757, "RA_OF_ASC_NODE": 75.399, "ARG_OF_PERICENTER": 291.3316, "MEAN_ANOMALY": 156.8813, "EPHEMERIS_TYPE": 0, "CLASSIFICATION_TYPE": "U", "NORAD_CAT_ID": 38953, "ELEMENT_SET_NO": 999, "REV_AT_EPOCH": 4815, "BSTAR": 0, "MEAN_MOTION_DOT": -1.54e-06, "MEAN_MOTION_DDOT": 0}, "tle": {"line1": "1 38953U 12059A   25357.96379031 -.00000154  00000+0  00000+0 0  9994", "line2": "2 38953   3.9757  75.3990 0008393 291.3316 156.8813  1.00267756 48156"}}, "geometry": {"type": "Point", "coordinates": [38.2625821715332, -2.3970646178151696]}}, {"type": "Feature", "properties": {"norad_id": 38977, "name": "LUCH 5B (SDCM/PRN 125)", "group": "gnss", "lat": -9.268882471886293, "lon": -62.344070947699464, "alt_km": 35769.37822807166, "timestamp": "2025-12-24T14:43:29.244681+00:00", "meta": {"OBJECT_NAME": "LUCH 5B (SDCM/PRN 125)", "OBJECT_ID": "2012-061A", "EPOCH": "2025-12-23T23:19:30.865728", "MEAN_MOTION": 1.00271916, "ECCENTRICITY": 0.0006602, "INCLINATION": 10.1038, "RA_OF_ASC_NODE": 51.5975, "ARG_OF_PERICENTER": 196.0445, "MEAN_ANOMALY": 178.6636, "EPHEMERIS_TYPE": 0, "CLASSIFICATION_TYPE": "U", "NORAD_CAT_ID": 38977, "ELEMENT_SET_NO": 999, "REV_AT_EPOCH": 4785, "BSTAR": 0, "MEAN_MOTION_DOT": -1.21e-06, "MEAN_MOTION_DDOT": 0}, "tle": {"line1": "1 38977U 12061A   25357.97188502 -.00000121  00000+0  00000+0 0  9999", "line2": "2 38977  10.1038  51.5975 0006602 196.0445 178.6636  1.00271916 47852"}}, "geometry": {"type": "Point", "coordinates": [-62.344070947699464, -9.268882471886293]}}, {"type": "Feature", "properties": {"norad_id": 39155, "name": "COSMOS 2485 (747)", "group": "gnss", "lat": -22.721615268491718, "lon": -89.43431101453612, "alt_km": 19075.3979491039, "timestamp": "2025-12-24T14:43:29.244694+00:00", "meta": {"OBJECT_NAME": "COSMOS 2485 (747)", "OBJECT_ID": "2013-019A", "EPOCH": "2025-12-23T21:02:08.451744", "MEAN_MOTION": 2.13103232, "ECCENTRICITY": 0.00250068, "INCLINATION": 65.319, "RA_OF_ASC_NODE": 79.4928, "ARG_OF_PERICENTER": 230.5113, "MEAN_ANOMALY": 129.3147, "EPHEMERIS_TYPE": 0, "CLASSIFICATION_TYPE": "U", "NORAD_CAT_ID": 39155, "ELEMENT_SET_NO": 999, "REV_AT_EPOCH": 9854, "BSTAR": 0, "MEAN_MOTION_DOT": 2e-08, "MEAN_MOTION_DDOT": 0}, "tle": {"line1": "1 39155U 13019A   25357.87648671  .00000002  00000+0  00000+0 0  9996", "line2": "2 39155  65.3190  79.4928 0025006 230.5113 129.3147  2.13103232 98546"}}, "geometry": {"type": "Point", "coordinates": [-89.43431101453612, -22.721615268491718]}}, {"type": "Feature", "properties": {"norad_id": 39166, "name": "GPS BIIF-4  (PRN 27)", "group": "gnss", "lat": -38.08753607817668, "lon": -117.67871179229572, "alt_km": 20231.79228754946, "timestamp": "2025-12-24T14:43:29.244705+00:00", "meta": {"OBJECT_NAME": "GPS BIIF-4  (PRN 27)", "OBJECT_ID": "2013-023A", "EPOCH": "2025-12-24T04:22:45.403680", "MEAN_MOTION": 2.0056459, "ECCENTRICITY": 0.01385961, "INCLINATION": 54.6422, "RA_OF_ASC_NODE": 276.1031, "ARG_OF_PERICENTER": 48.7604, "MEAN_ANOMALY": 312.4729, "EPHEMERIS_TYPE": 0, "CLASSIFICATION_TYPE": "U", "NORAD_CAT_ID": 39166, "ELEMENT_SET_NO": 999, "REV_AT_EPOCH": 9237, "BSTAR": 0, "MEAN_MOTION_DOT": -1.6e-07, "MEAN_MOTION_DDOT": 0}, "tle": {"line1": "1 39166U 13023A   25358.18246995 -.00000016  00000+0  00000+0 0  9997", "line2": "2 39166  54.6422 276.1031 0138596  48.7604 312.4729  2.00564590 92371"}}, "geometry": {"type": "Point", "coordinates": [-117.67871179229572, -38.08753607817668]}}, {"type": "Feature", "properties": {"norad_id": 39199, "name": "IRNSS-1A", "group": "gnss", "lat": -29.062672385916564, "lon": 14.863920375812231, "alt_km": 35785.53717359818, "timestamp": "2025-12-24T14:43:29.244717+00:00", "meta": {"OBJECT_NAME": "IRNSS-1A", "OBJECT_ID": "2013-034A", "EPOCH": "2025-12-23T18:31:50.766240", "MEAN_MOTION": 1.00273261, "ECCENTRICITY": 0.00244469, "INCLINATION": 35.3346, "RA_OF_ASC_NODE": 66.3922, "ARG_OF_PERICENTER": 214.961, "MEAN_ANOMALY": 143.9705, "EPHEMERIS_TYPE": 0, "CLASSIFICATION_TYPE": "U", "NORAD_CAT_ID": 39199, "ELEMENT_SET_NO": 999, "REV_AT_EPOCH": 4560, "BSTAR": 0, "MEAN_MOTION_DOT": 7.8e-07, "MEAN_MOTION_DDOT": 0}, "tle": {"line1": "1 39199U 13034A   25357.77211535  .00000078  00000+0  00000+0 0  9998", "line2": "2 39199  35.3346  66.3922 0024446 214.9610 143.9705  1.00273261 45604"}}, "geometry": {"type": "Point", "coordinates": [14.863920375812231, -29.062672385916564]}}, {"type": "Feature", "properties": {"norad_id": 39533, "name": "GPS BIIF-5  (PRN 30)", "group": "gnss", "lat": -34.216619744055315, "lon": 126.32748686222098, "alt_km": 20185.148559219462, "timestamp": "2025-12-24T14:43:29.244729+00:00", "meta": {"OBJECT_NAME": "GPS BIIF-5  (PRN 30)", "OBJECT_ID": "2014-008A", "EPOCH": "2025-12-23T16:16:25.020768", "MEAN_MOTION": 2.00548852, "ECCENTRICITY": 0.00795532, "INCLINATION": 53.5993, "RA_OF_ASC_NODE": 156.4877, "ARG_OF_PERICENTER": 225.9161, "MEAN_ANOMALY": 133.4108, "EPHEMERIS_TYPE": 0, "CLASSIFICATION_TYPE": "U", "NORAD_CAT_ID": 39533, "ELEMENT_SET_NO": 999, "REV_AT_EPOCH": 8616, "BSTAR": 0, "MEAN_MOTION_DOT": 8.2e-07, "MEAN_MOTION_DDOT": 0}, "tle": {"line1": "1 39533U 14008A   25357.67806737  .00000082  00000+0  00000+0 0  9990", "line2": "2 39533  53.5993 156.4877 0079553 225.9161 133.4108  2.00548852 86167"}}, "geometry": {"type": "Point", "coordinates": [126.32748686222098, -34.216619744055315]}}, {"type": "Feature", "properties": {"norad_id": 39617, "name": "ASTRA 5B (EGNOS/PRN 123)", "group": "gnss", "lat": -0.037075325939444244, "lon": -22.21120928347704, "alt_km": 35776.06491263911, "timestamp": "2025-12-24T14:43:29.244741+00:00", "meta": {"OBJECT_NAME": "ASTRA 5B (EGNOS/PRN 123)", "OBJECT_ID": "2014-011B", "EPOCH": "2025-12-24T06:21:51.349824", "MEAN_MOTION": 1.00270903, "ECCENTRICITY": 0.0004581, "INCLINATION": 0.0443, "RA_OF_ASC_NODE": 11.6983, "ARG_OF_PERICENTER": 267.911, "MEAN_ANOMALY": 292.3909, "EPHEMERIS_TYPE": 0, "CLASSIFICATION_TYPE": "U", "NORAD_CAT_ID": 39617, "ELEMENT_SET_NO": 999, "REV_AT_EPOCH": 4291, "BSTAR": 0, "MEAN_MOTION_DOT": 1.58e-06, "MEAN_MOTION_DDOT": 0}, "tle": {"line1": "1 39617U 14011B   25358.26517766  .00000158  00000+0  00000+0 0  9998", "line2": "2 39617   0.0443  11.6983 0004581 267.9110 292.3909  1.00270903 42913"}}, "geometry": {"type": "Point", "coordinates": [-22.21120928347704, -0.037075325939444244]}}]}